{
  "type": "FeatureCollection",
  "features": [
    {
      "type": "Feature",
      "properties": {
        "norad_id": 43783,
        "name": "KAZSTSAT",
        "group": "resource",
        "lat": -59.35556737301512,
        "lon": -165.823030052484,
        "alt_km": 574.4298955428712,
        "timestamp": "2025-12-17T23:38:06.520797+00:00",
        "meta_object_name": "KAZSTSAT",
        "meta_object_id": "2018-099AB",
        "meta_epoch": "2025-12-17T14:33:30.275424",
        "meta_mean_motion": 14.99362058,
        "meta_eccentricity": 0.00059101,
        "meta_inclination": 97.4541,
        "meta_ra_of_asc_node": 26.5825,
        "meta_arg_of_pericenter": 308.6143,
        "meta_mean_anomaly": 51.4551,
        "meta_ephemeris_type": 0,
        "meta_classification_type": "U",
        "meta_norad_cat_id": 43783,
        "meta_element_set_no": 999,
        "meta_rev_at_epoch": 38409,
        "meta_bstar": 4.7093111e-05,
        "meta_mean_motion_dot": 5.2e-06,
        "meta_mean_motion_ddot": 0,
        "tle_line1": "1 43783U 18099AB  25351.60660041  .00000520  00000+0  47093-4 0  9994",
        "tle_line2": "2 43783  97.4541  26.5825 0005910 308.6143  51.4551 14.99362058384097"
      },
      "geometry": {
        "type": "Point",
        "coordinates": [
          -165.823030052484,
          -59.35556737301512
        ]
      }
    },
    {
      "type": "Feature",
      "properties": {
        "norad_id": 43831,
        "name": "SAUDISAT 5A",
        "group": "resource",
        "lat": 68.10699366454278,
        "lon": 33.37810042363408,
        "alt_km": 474.1964177208447,
        "timestamp": "2025-12-17T23:38:06.520807+00:00",
        "meta_object_name": "SAUDISAT 5A",
        "meta_object_id": "2018-102A",
        "meta_epoch": "2025-12-17T15:27:46.192896",
        "meta_mean_motion": 15.25717325,
        "meta_eccentricity": 0.00115504,
        "meta_inclination": 97.3353,
        "meta_ra_of_asc_node": 51.741,
        "meta_arg_of_pericenter": 61.1614,
        "meta_mean_anomaly": 299.0782,
        "meta_ephemeris_type": 0,
        "meta_classification_type": "U",
        "meta_norad_cat_id": 43831,
        "meta_element_set_no": 999,
        "meta_rev_at_epoch": 38797,
        "meta_bstar": 0.00020666847,
        "meta_mean_motion_dot": 5.206e-05,
        "meta_mean_motion_ddot": 0,
        "tle_line1": "1 43831U 18102A   25351.64428464  .00005206  00000+0  20667-3 0  9991",
        "tle_line2": "2 43831  97.3353  51.7410 0011550  61.1614 299.0782 15.25717325387979"
      },
      "geometry": {
        "type": "Point",
        "coordinates": [
          33.37810042363408,
          68.10699366454278
        ]
      }
    },
    {
      "type": "Feature",
      "properties": {
        "norad_id": 43833,
        "name": "SAUDISAT 5B",
        "group": "resource",
        "lat": 51.01101046908087,
        "lon": -116.00789121218031,
        "alt_km": 479.5166360881067,
        "timestamp": "2025-12-17T23:38:06.520817+00:00",
        "meta_object_name": "SAUDISAT 5B",
        "meta_object_id": "2018-102C",
        "meta_epoch": "2025-12-17T15:12:26.745696",
        "meta_mean_motion": 15.26067267,
        "meta_eccentricity": 0.00122784,
        "meta_inclination": 97.3448,
        "meta_ra_of_asc_node": 54.4779,
        "meta_arg_of_pericenter": 63.3367,
        "meta_mean_anomaly": 296.9127,
        "meta_ephemeris_type": 0,
        "meta_classification_type": "U",
        "meta_norad_cat_id": 43833,
        "meta_element_set_no": 999,
        "meta_rev_at_epoch": 38808,
        "meta_bstar": 0.00018491708,
        "meta_mean_motion_dot": 4.701e-05,
        "meta_mean_motion_ddot": 0,
        "tle_line1": "1 43833U 18102C   25351.63364289  .00004701  00000+0  18492-3 0  9998",
        "tle_line2": "2 43833  97.3448  54.4779 0012278  63.3367 296.9127 15.26067267388087"
      },
      "geometry": {
        "type": "Point",
        "coordinates": [
          -116.00789121218031,
          51.01101046908087
        ]
      }
    },
    {
      "type": "Feature",
      "properties": {
        "norad_id": 44622,
        "name": "GAOFEN-10R",
        "group": "resource",
        "lat": -23.480936033300146,
        "lon": -56.97333095253265,
        "alt_km": 622.5895234660684,
        "timestamp": "2025-12-17T23:38:06.520827+00:00",
        "meta_object_name": "GAOFEN-10R",
        "meta_object_id": "2019-066A",
        "meta_epoch": "2025-12-17T15:38:38.838624",
        "meta_mean_motion": 14.82808894,
        "meta_eccentricity": 0.00075508,
        "meta_inclination": 98.0283,
        "meta_ra_of_asc_node": 299.1772,
        "meta_arg_of_pericenter": 27.6942,
        "meta_mean_anomaly": 332.4671,
        "meta_ephemeris_type": 0,
        "meta_classification_type": "U",
        "meta_norad_cat_id": 44622,
        "meta_element_set_no": 999,
        "meta_rev_at_epoch": 33547,
        "meta_bstar": 0.00017318056,
        "meta_mean_motion_dot": 1.347e-05,
        "meta_mean_motion_ddot": 0,
        "tle_line1": "1 44622U 19066A   25351.65183841  .00001347  00000+0  17318-3 0  9999",
        "tle_line2": "2 44622  98.0283 299.1772 0007550  27.6942 332.4671 14.82808894335474"
      },
      "geometry": {
        "type": "Point",
        "coordinates": [
          -56.97333095253265,
          -23.480936033300146
        ]
      }
    },
    {
      "type": "Feature",
      "properties": {
        "norad_id": 44804,
        "name": "CARTOSAT-3",
        "group": "resource",
        "lat": 72.81946111803202,
        "lon": -103.42863334025077,
        "alt_km": 493.79324279229695,
        "timestamp": "2025-12-17T23:38:06.520837+00:00",
        "meta_object_name": "CARTOSAT-3",
        "meta_object_id": "2019-081A",
        "meta_epoch": "2025-12-17T15:16:10.622784",
        "meta_mean_motion": 15.19195699,
        "meta_eccentricity": 0.00139694,
        "meta_inclination": 97.4583,
        "meta_ra_of_asc_node": 51.158,
        "meta_arg_of_pericenter": 67.8033,
        "meta_mean_anomaly": 292.4682,
        "meta_ephemeris_type": 0,
        "meta_classification_type": "U",
        "meta_norad_cat_id": 44804,
        "meta_element_set_no": 999,
        "meta_rev_at_epoch": 33590,
        "meta_bstar": 0.00021678655,
        "meta_mean_motion_dot": 4.504e-05,
        "meta_mean_motion_ddot": 0,
        "tle_line1": "1 44804U 19081A   25351.63623406  .00004504  00000+0  21679-3 0  9995",
        "tle_line2": "2 44804  97.4583  51.1580 0013969  67.8033 292.4682 15.19195699335901"
      },
      "geometry": {
        "type": "Point",
        "coordinates": [
          -103.42863334025077,
          72.81946111803202
        ]
      }
    },
    {
      "type": "Feature",
      "properties": {
        "norad_id": 44819,
        "name": "GAOFEN-12 01",
        "group": "resource",
        "lat": -22.886466936798453,
        "lon": 174.80562081764737,
        "alt_km": 631.5656767850478,
        "timestamp": "2025-12-17T23:38:06.520847+00:00",
        "meta_object_name": "GAOFEN-12 01",
        "meta_object_id": "2019-082A",
        "meta_epoch": "2025-12-17T14:36:42.002208",
        "meta_mean_motion": 14.80663101,
        "meta_eccentricity": 0.00016099,
        "meta_inclination": 97.8124,
        "meta_ra_of_asc_node": 357.7621,
        "meta_arg_of_pericenter": 207.5487,
        "meta_mean_anomaly": 152.564,
        "meta_ephemeris_type": 0,
        "meta_classification_type": "U",
        "meta_norad_cat_id": 44819,
        "meta_element_set_no": 999,
        "meta_rev_at_epoch": 32722,
        "meta_bstar": 6.2807108e-05,
        "meta_mean_motion_dot": 4.32e-06,
        "meta_mean_motion_ddot": 0,
        "tle_line1": "1 44819U 19082A   25351.60881947  .00000432  00000+0  62807-4 0  9990",
        "tle_line2": "2 44819  97.8124 357.7621 0001609 207.5487 152.5640 14.80663101327228"
      },
      "geometry": {
        "type": "Point",
        "coordinates": [
          174.80562081764737,
          -22.886466936798453
        ]
      }
    },
    {
      "type": "Feature",
      "properties": {
        "norad_id": 44873,
        "name": "CSG-1",
        "group": "resource",
        "lat": -17.794803879688963,
        "lon": 175.7776905921057,
        "alt_km": 627.8197501718323,
        "timestamp": "2025-12-17T23:38:06.520857+00:00",
        "meta_object_name": "CSG-1",
        "meta_object_id": "2019-092A",
        "meta_epoch": "2025-12-17T13:59:40.083648",
        "meta_mean_motion": 14.82146949,
        "meta_eccentricity": 0.00014926,
        "meta_inclination": 97.8803,
        "meta_ra_of_asc_node": 172.8343,
        "meta_arg_of_pericenter": 87.1499,
        "meta_mean_anomaly": 272.9885,
        "meta_ephemeris_type": 0,
        "meta_classification_type": "U",
        "meta_norad_cat_id": 44873,
        "meta_element_set_no": 999,
        "meta_rev_at_epoch": 32457,
        "meta_bstar": 6.7511096e-05,
        "meta_mean_motion_dot": 4.85e-06,
        "meta_mean_motion_ddot": 0,
        "tle_line1": "1 44873U 19092A   25351.58310282  .00000485  00000+0  67511-4 0  9992",
        "tle_line2": "2 44873  97.8803 172.8343 0001492  87.1499 272.9885 14.82146949324575"
      },
      "geometry": {
        "type": "Point",
        "coordinates": [
          175.7776905921057,
          -17.794803879688963
        ]
      }
    }
  ]
}